{
  "norad_id": 67938,
  "name": "STARLINK-36371",
  "history": [
    {
      "epoch": "2026-03-28T16:28:05.974464Z",
      "apogee_km": 415.84151933362773,
      "perigee_km": 414.1038418773287,
      "latitude_deg": -3.9801305710628084e-05,
      "longitude_deg": 11.39279798643651,
      "height_km": 414.7299903576987,
      "semi_major_axis_km": 6793.1096806054775,
      "eccentricity": 0.0001279,
      "inclination_deg": 42.9996,
      "raan_deg": 84.5208,
      "arg_perigee_deg": 271.12,
      "mean_anomaly_deg": 88.9513,
      "mean_motion_rev_day": 15.50600151
    },
    {
      "epoch": "2026-03-29T01:44:38.619744Z",
      "apogee_km": 415.92131727974447,
      "perigee_km": 413.98800339321133,
      "latitude_deg": 3.562314261492769e-05,
      "longitude_deg": -130.38388455660905,
      "height_km": 414.97538277426224,
      "semi_major_axis_km": 6793.091660336478,
      "eccentricity": 0.0001423,
      "inclination_deg": 42.9986,
      "raan_deg": 82.261,
      "arg_perigee_deg": 255.2258,
      "mean_anomaly_deg": 104.8445,
      "mean_motion_rev_day": 15.50606321
    },
    {
      "epoch": "2026-03-29T23:23:15.003744Z",
      "apogee_km": 415.83031913236846,
      "perigee_km": 413.9024647697315,
      "latitude_deg": 5.185991032224127e-05,
      "longitude_deg": -101.1992312795355,
      "height_km": 414.9679549086302,
      "semi_major_axis_km": 6793.00339195105,
      "eccentricity": 0.0001419,
      "inclination_deg": 42.9988,
      "raan_deg": 76.9861,
      "arg_perigee_deg": 250.1458,
      "mean_anomaly_deg": 109.925,
      "mean_motion_rev_day": 15.50636544
    }
  ]
}